{"type": "FeatureCollection", "features": [{"type": "Feature", "properties": {"norad_id": 26766, "name": "INTELSAT 10 (IS-10)", "group": "intelsat", "lat": -8.445986789627147, "lon": -42.3157321098561, "alt_km": 36096.54053654104, "timestamp": "2025-12-26T09:30:53.295699+00:00", "meta": {"OBJECT_NAME": "INTELSAT 10 (IS-10)", "OBJECT_ID": "2001-019A", "EPOCH": "2025-12-25T19:25:55.835328", "MEAN_MOTION": 0.9907201, "ECCENTRICITY": 0.00080047, "INCLINATION": 8.6586, "RA_OF_ASC_NODE": 61.0243, "ARG_OF_PERICENTER": 229.8346, "MEAN_ANOMALY": 177.6501, "EPHEMERIS_TYPE": 0, "CLASSIFICATION_TYPE": "U", "NORAD_CAT_ID": 26766, "ELEMENT_SET_NO": 999, "REV_AT_EPOCH": 4386, "BSTAR": 0, "MEAN_MOTION_DOT": 3.8e-07, "MEAN_MOTION_DDOT": 0}, "tle": {"line1": "1 26766U 01019A   25359.80967402  .00000038  00000+0  00000+0 0  9997", "line2": "2 26766   8.6586  61.0243 0008004 229.8346 177.6501  0.99072010 43860"}}, "geometry": {"type": "Point", "coordinates": [-42.3157321098561, -8.445986789627147]}}, {"type": "Feature", "properties": {"norad_id": 26900, "name": "INTELSAT 902 (IS-902)", "group": "intelsat", "lat": 5.2059316237119075, "lon": -172.3028214052788, "alt_km": 35782.32819068294, "timestamp": "2025-12-26T09:30:53.295738+00:00", "meta": {"OBJECT_NAME": "INTELSAT 902 (IS-902)", "OBJECT_ID": "2001-039A", "EPOCH": "2025-12-15T13:09:02.081664", "MEAN_MOTION": 1.0027087, "ECCENTRICITY": 0.00045028, "INCLINATION": 5.6536, "RA_OF_ASC_NODE": 74.0372, "ARG_OF_PERICENTER": 189.6359, "MEAN_ANOMALY": 327.9329, "EPHEMERIS_TYPE": 0, "CLASSIFICATION_TYPE": "U", "NORAD_CAT_ID": 26900, "ELEMENT_SET_NO": 999, "REV_AT_EPOCH": 8885, "BSTAR": 0, "MEAN_MOTION_DOT": -2.65e-06, "MEAN_MOTION_DDOT": 0}, "tle": {"line1": "1 26900U 01039A   25349.54794076 -.00000265  00000+0  00000+0 0  9997", "line2": "2 26900   5.6536  74.0372 0004502 189.6359 327.9329  1.00270870 88858"}}, "geometry": {"type": "Point", "coordinates": [-172.3028214052788, 5.2059316237119075]}}, {"type": "Feature", "properties": {"norad_id": 27380, "name": "INTELSAT 904 (IS-904)", "group": "intelsat", "lat": 4.57508239286033, "lon": -153.45412743710617, "alt_km": 35788.85385109476, "timestamp": "2025-12-26T09:30:53.295762+00:00", "meta": {"OBJECT_NAME": "INTELSAT 904 (IS-904)", "OBJECT_ID": "2002-007A", "EPOCH": "2025-12-26T00:54:05.260032", "MEAN_MOTION": 1.00272555, "ECCENTRICITY": 0.0002087, "INCLINATION": 6.4858, "RA_OF_ASC_NODE": 71.2782, "ARG_OF_PERICENTER": 249.0692, "MEAN_ANOMALY": 116.4823, "EPHEMERIS_TYPE": 0, "CLASSIFICATION_TYPE": "U", "NORAD_CAT_ID": 27380, "ELEMENT_SET_NO": 999, "REV_AT_EPOCH": 5003, "BSTAR": 0, "MEAN_MOTION_DOT": -2.06e-06, "MEAN_MOTION_DDOT": 0}, "tle": {"line1": "1 27380U 02007A   25360.03756088 -.00000206  00000+0  00000+0 0  9999", "line2": "2 27380   6.4858  71.2782 0002087 249.0692 116.4823  1.00272555 50039"}}, "geometry": {"type": "Point", "coordinates": [-153.45412743710617, 4.57508239286033]}}, {"type": "Feature", "properties": {"norad_id": 27426, "name": "DIRECTV 5 (TEMPO 1)", "group": "intelsat", "lat": 3.425312788497239, "lon": 127.6394022943987, "alt_km": 35798.47047922908, "timestamp": "2025-12-26T09:30:53.295781+00:00", "meta": {"OBJECT_NAME": "DIRECTV 5 (TEMPO 1)", "OBJECT_ID": "2002-023A", "EPOCH": "2025-12-25T07:28:38.731296", "MEAN_MOTION": 1.00271555, "ECCENTRICITY": 0.0003354, "INCLINATION": 4.4323, "RA_OF_ASC_NODE": 77.5052, "ARG_OF_PERICENTER": 204.4666, "MEAN_ANOMALY": 174.1445, "EPHEMERIS_TYPE": 0, "CLASSIFICATION_TYPE": "U", "NORAD_CAT_ID": 27426, "ELEMENT_SET_NO": 999, "REV_AT_EPOCH": 8638, "BSTAR": 0, "MEAN_MOTION_DOT": -3.7e-07, "MEAN_MOTION_DDOT": 0}, "tle": {"line1": "1 27426U 02023A   25359.31155939 -.00000037  00000+0  00000+0 0  9997", "line2": "2 27426   4.4323  77.5052 0003354 204.4666 174.1445  1.00271555 86385"}}, "geometry": {"type": "Point", "coordinates": [127.6394022943987, 3.425312788497239]}}, {"type": "Feature", "properties": {"norad_id": 27438, "name": "INTELSAT 905 (IS-905)", "group": "intelsat", "lat": 3.0549088448211075, "lon": 100.53657467326674, "alt_km": 35796.58794862594, "timestamp": "2025-12-26T09:30:53.295798+00:00", "meta": {"OBJECT_NAME": "INTELSAT 905 (IS-905)", "OBJECT_ID": "2002-027A", "EPOCH": "2025-12-23T05:41:27.377952", "MEAN_MOTION": 1.00273243, "ECCENTRICITY": 0.00027491, "INCLINATION": 6.3102, "RA_OF_ASC_NODE": 71.9349, "ARG_OF_PERICENTER": 206.5226, "MEAN_ANOMALY": 121.7385, "EPHEMERIS_TYPE": 0, "CLASSIFICATION_TYPE": "U", "NORAD_CAT_ID": 27438, "ELEMENT_SET_NO": 999, "REV_AT_EPOCH": 4959, "BSTAR": 0, "MEAN_MOTION_DOT": 1.12e-06, "MEAN_MOTION_DDOT": 0}, "tle": {"line1": "1 27438U 02027A   25357.23712243  .00000112  00000+0  00000+0 0  9993", "line2": "2 27438   6.3102  71.9349 0002749 206.5226 121.7385  1.00273243 49592"}}, "geometry": {"type": "Point", "coordinates": [100.53657467326674, 3.0549088448211075]}}, {"type": "Feature", "properties": {"norad_id": 27445, "name": "GALAXY 3C (G-3C)", "group": "intelsat", "lat": 2.942249443047651, "lon": 142.96131864250873, "alt_km": 35781.978287846716, "timestamp": "2025-12-26T09:30:53.295814+00:00", "meta": {"OBJECT_NAME": "GALAXY 3C (G-3C)", "OBJECT_ID": "2002-030A", "EPOCH": "2025-12-26T00:40:14.516256", "MEAN_MOTION": 1.00271406, "ECCENTRICITY": 9.95e-05, "INCLINATION": 3.2949, "RA_OF_ASC_NODE": 80.3648, "ARG_OF_PERICENTER": 85.9559, "MEAN_ANOMALY": 203.6643, "EPHEMERIS_TYPE": 0, "CLASSIFICATION_TYPE": "U", "NORAD_CAT_ID": 27445, "ELEMENT_SET_NO": 999, "REV_AT_EPOCH": 4475, "BSTAR": 0, "MEAN_MOTION_DOT": -1.32e-06, "MEAN_MOTION_DDOT": 0}, "tle": {"line1": "1 27445U 02030A   25360.02794579 -.00000132  00000+0  00000+0 0  9991", "line2": "2 27445   3.2949  80.3648 0000995  85.9559 203.6643  1.00271406 44759"}}, "geometry": {"type": "Point", "coordinates": [142.96131864250873, 2.942249443047651]}}, {"type": "Feature", "properties": {"norad_id": 27513, "name": "INTELSAT 906 (IS-906)", "group": "intelsat", "lat": -3.9357285756385623, "lon": -58.10505712194981, "alt_km": 35763.08045486616, "timestamp": "2025-12-26T09:30:53.295827+00:00", "meta": {"OBJECT_NAME": "INTELSAT 906 (IS-906)", "OBJECT_ID": "2002-041A", "EPOCH": "2025-12-25T18:30:25.911072", "MEAN_MOTION": 1.00270895, "ECCENTRICITY": 0.00061771, "INCLINATION": 5.3631, "RA_OF_ASC_NODE": 75.0767, "ARG_OF_PERICENTER": 202.1174, "MEAN_ANOMALY": 159.0704, "EPHEMERIS_TYPE": 0, "CLASSIFICATION_TYPE": "U", "NORAD_CAT_ID": 27513, "ELEMENT_SET_NO": 999, "REV_AT_EPOCH": 8529, "BSTAR": 0, "MEAN_MOTION_DOT": 3.3e-07, "MEAN_MOTION_DDOT": 0}, "tle": {"line1": "1 27513U 02041A   25359.77113323  .00000033  00000+0  00000+0 0  9990", "line2": "2 27513   5.3631  75.0767 0006177 202.1174 159.0704  1.00270895 85290"}}, "geometry": {"type": "Point", "coordinates": [-58.10505712194981, -3.9357285756385623]}}, {"type": "Feature", "properties": {"norad_id": 27954, "name": "GALAXY 13 (HORIZONS-1)", "group": "intelsat", "lat": 0.04462630668267319, "lon": 87.83214008391076, "alt_km": 35795.60240750048, "timestamp": "2025-12-26T09:30:53.295841+00:00", "meta": {"OBJECT_NAME": "GALAXY 13 (HORIZONS-1)", "OBJECT_ID": "2003-044A", "EPOCH": "2025-12-26T02:12:38.791296", "MEAN_MOTION": 1.00272317, "ECCENTRICITY": 0.0002303, "INCLINATION": 0.9714, "RA_OF_ASC_NODE": 86.2971, "ARG_OF_PERICENTER": 186.7106, "MEAN_ANOMALY": 64.9678, "EPHEMERIS_TYPE": 0, "CLASSIFICATION_TYPE": "U", "NORAD_CAT_ID": 27954, "ELEMENT_SET_NO": 999, "REV_AT_EPOCH": 4483, "BSTAR": 0, "MEAN_MOTION_DOT": 1.54e-06, "MEAN_MOTION_DDOT": 0}, "tle": {"line1": "1 27954U 03044A   25360.09211564  .00000154  00000+0  00000+0 0  9990", "line2": "2 27954   0.9714  86.2971 0002303 186.7106  64.9678  1.00272317 44832"}}, "geometry": {"type": "Point", "coordinates": [87.83214008391076, 0.04462630668267319]}}, {"type": "Feature", "properties": {"norad_id": 28358, "name": "INTELSAT 10-02", "group": "intelsat", "lat": -0.01671638396143171, "lon": -123.10273598775383, "alt_km": 35783.522046824575, "timestamp": "2025-12-26T09:30:53.295853+00:00", "meta": {"OBJECT_NAME": "INTELSAT 10-02", "OBJECT_ID": "2004-022A", "EPOCH": "2025-12-25T22:47:38.488128", "MEAN_MOTION": 1.0027262, "ECCENTRICITY": 0.0001104, "INCLINATION": 0.0179, "RA_OF_ASC_NODE": 38.8886, "ARG_OF_PERICENTER": 258.4848, "MEAN_ANOMALY": 138.2885, "EPHEMERIS_TYPE": 0, "CLASSIFICATION_TYPE": "U", "NORAD_CAT_ID": 28358, "ELEMENT_SET_NO": 999, "REV_AT_EPOCH": 7881, "BSTAR": 0, "MEAN_MOTION_DOT": 1.1e-07, "MEAN_MOTION_DDOT": 0}, "tle": {"line1": "1 28358U 04022A   25359.94975102  .00000011  00000+0  00000+0 0  9995", "line2": "2 28358   0.0179  38.8886 0001104 258.4848 138.2885  1.00272620 78810"}}, "geometry": {"type": "Point", "coordinates": [-123.10273598775383, -0.01671638396143171]}}, {"type": "Feature", "properties": {"norad_id": 28626, "name": "XM-3 (RHYTHM)", "group": "intelsat", "lat": -0.10616843271420903, "lon": -72.80131686661554, "alt_km": 36157.02592004864, "timestamp": "2025-12-26T09:30:53.295866+00:00", "meta": {"OBJECT_NAME": "XM-3 (RHYTHM)", "OBJECT_ID": "2005-008A", "EPOCH": "2025-12-25T21:53:38.819040", "MEAN_MOTION": 0.98950334, "ECCENTRICITY": 0.0002225, "INCLINATION": 0.2066, "RA_OF_ASC_NODE": 82.2869, "ARG_OF_PERICENTER": 272.6004, "MEAN_ANOMALY": 119.8578, "EPHEMERIS_TYPE": 0, "CLASSIFICATION_TYPE": "U", "NORAD_CAT_ID": 28626, "ELEMENT_SET_NO": 999, "REV_AT_EPOCH": 4088, "BSTAR": 0, "MEAN_MOTION_DOT": 8.9e-07, "MEAN_MOTION_DDOT": 0}, "tle": {"line1": "1 28626U 05008A   25359.91225485  .00000089  00000+0  00000+0 0  9992", "line2": "2 28626   0.2066  82.2869 0002225 272.6004 119.8578  0.98950334 40887"}}, "geometry": {"type": "Point", "coordinates": [-72.80131686661554, -0.10616843271420903]}}]}